0 DELTA 1 DEB
1 12284U 78026EC  13282.23408735  .00000629  00000-0  45846-3 0  1043
2 12284 099.0428 014.2025 0102060 337.4784 049.0567 13.97411276656065
0 DELTA 1 DEB
1 12284U 78026EC  13283.24171811  .00000658  00000-0  47832-3 0  1057
2 12284 099.0429 015.1943 0102045 334.6963 078.1387 13.97412151656208
0 DELTA 1 DEB
1 12284U 78026EC  13285.83337226  .00000775  00000-0  55790-3 0  1072
2 12284 099.0432 017.7450 0102034 327.5323 155.9851 13.97413905656569
0 DELTA 1 DEB
1 12284U 78026EC  13286.83655764  .00000895  00000-0  63999-3 0  1087
2 12284 099.0433 018.7326 0102029 324.7541 162.7270 13.97414891656700
0 DELTA 1 DEB
1 12284U 78026EC  13288.18310203  .00001133  00000-0  80225-3 0  1091
2 12284 099.0433 020.0581 0102052 321.0323 096.8077 13.97418118656891
0 DELTA 1 DEB
1 12284U 78026EC  13289.84222980  .00001039  00000-0  73829-3 0  1108
2 12284 099.0432 021.6914 0102093 316.4233 163.4464 13.97421057657124
0 DELTA 1 DEB
1 12284U 78026EC  13291.18442892  .00001034  00000-0  73431-3 0  1119
2 12284 099.0429 023.0127 0102068 312.7268 075.6822 13.97424032657310
0 DELTA 1 DEB
1 12284U 78026EC  13292.19245684  .00001062  00000-0  75374-3 0  1121
2 12284 099.0429 024.0050 0102126 309.9128 106.8427 13.97426350657452
0 DELTA 1 DEB
1 12284U 78026EC  13293.19483236  .00001061  00000-0  75274-3 0  1138
2 12284 099.0428 024.9918 0102165 307.1242 109.5638 13.97428874657595
0 DELTA 1 DEB
1 12284U 78026EC  13294.19746039  .00001005  00000-0  71491-3 0  1148
2 12284 099.0429 025.9788 0102182 304.3458 113.5520 13.97432012657739
0 DELTA 1 DEB
1 12284U 78026EC  13295.48653132  .00000989  00000-0  70341-3 0  1156
2 12284 099.0429 027.2477 0102249 300.7637 118.5939 13.97435749657911
